{
  "type": "FeatureCollection",
  "features": [
    {
      "type": "Feature",
      "properties": {
        "norad_id": 29850,
        "name": "FENGYUN 1C DEB",
        "group": "fengyun-1c-debris",
        "lat": 55.708190836858975,
        "lon": -102.51739582070186,
        "alt_km": 919.776900842091,
        "timestamp": "2025-12-08T10:52:03.219319+00:00",
        "meta_object_name": "FENGYUN 1C DEB",
        "meta_object_id": "1999-025EU",
        "meta_epoch": "2025-12-07T17:44:45.583872",
        "meta_mean_motion": 13.99829747,
        "meta_eccentricity": 0.01028608,
        "meta_inclination": 98.1228,
        "meta_ra_of_asc_node": 268.9376,
        "meta_arg_of_pericenter": 303.8457,
        "meta_mean_anomaly": 118.6331,
        "meta_ephemeris_type": 0,
        "meta_classification_type": "U",
        "meta_norad_cat_id": 29850,
        "meta_element_set_no": 999,
        "meta_rev_at_epoch": 95950,
        "meta_bstar": 0.002301041,
        "meta_mean_motion_dot": 3.495e-05,
        "meta_mean_motion_ddot": 0,
        "tle_line1": "1 29850U 99025EU  25341.73941648  .00003495  00000+0  23010-2 0  9994",
        "tle_line2": "2 29850  98.1228 268.9376 0102860 303.8457 118.6331 13.99829747959504"
      },
      "geometry": {
        "type": "Point",
        "coordinates": [
          -102.51739582070186,
          55.708190836858975
        ]
      }
    },
    {
      "type": "Feature",
      "properties": {
        "norad_id": 29851,
        "name": "FENGYUN 1C DEB",
        "group": "fengyun-1c-debris",
        "lat": -70.75814468231694,
        "lon": 174.3426661830668,
        "alt_km": 857.4759779974484,
        "timestamp": "2025-12-08T10:52:03.219330+00:00",
        "meta_object_name": "FENGYUN 1C DEB",
        "meta_object_id": "1999-025EV",
        "meta_epoch": "2025-12-07T16:55:05.914848",
        "meta_mean_motion": 13.83593037,
        "meta_eccentricity": 0.01419658,
        "meta_inclination": 99.5849,
        "meta_ra_of_asc_node": 22.5327,
        "meta_arg_of_pericenter": 240.8442,
        "meta_mean_anomaly": 248.7635,
        "meta_ephemeris_type": 0,
        "meta_classification_type": "U",
        "meta_norad_cat_id": 29851,
        "meta_element_set_no": 999,
        "meta_rev_at_epoch": 95297,
        "meta_bstar": 0.00056232193,
        "meta_mean_motion_dot": 6.23e-06,
        "meta_mean_motion_ddot": 0,
        "tle_line1": "1 29851U 99025EV  25341.70492957  .00000623  00000+0  56232-3 0  9999",
        "tle_line2": "2 29851  99.5849  22.5327 0141965 240.8442 248.7635 13.83593037952971"
      },
      "geometry": {
        "type": "Point",
        "coordinates": [
          174.3426661830668,
          -70.75814468231694
        ]
      }
    },
    {
      "type": "Feature",
      "properties": {
        "norad_id": 29852,
        "name": "FENGYUN 1C DEB",
        "group": "fengyun-1c-debris",
        "lat": 77.76984735079925,
        "lon": -57.54441163392497,
        "alt_km": 843.3284562947683,
        "timestamp": "2025-12-08T10:52:03.219340+00:00",
        "meta_object_name": "FENGYUN 1C DEB",
        "meta_object_id": "1999-025EW",
        "meta_epoch": "2025-12-07T22:52:22.524672",
        "meta_mean_motion": 14.07029541,
        "meta_eccentricity": 0.01351414,
        "meta_inclination": 99.3713,
        "meta_ra_of_asc_node": 351.5656,
        "meta_arg_of_pericenter": 163.1566,
        "meta_mean_anomaly": 270.3479,
        "meta_ephemeris_type": 0,
        "meta_classification_type": "U",
        "meta_norad_cat_id": 29852,
        "meta_element_set_no": 999,
        "meta_rev_at_epoch": 95917,
        "meta_bstar": 0.0019515887,
        "meta_mean_motion_dot": 3.497e-05,
        "meta_mean_motion_ddot": 0,
        "tle_line1": "1 29852U 99025EW  25341.95303848  .00003497  00000+0  19516-2 0  9992",
        "tle_line2": "2 29852  99.3713 351.5656 0135141 163.1566 270.3479 14.07029541959170"
      },
      "geometry": {
        "type": "Point",
        "coordinates": [
          -57.54441163392497,
          77.76984735079925
        ]
      }
    },
    {
      "type": "Feature",
      "properties": {
        "norad_id": 29853,
        "name": "FENGYUN 1C DEB",
        "group": "fengyun-1c-debris",
        "lat": 77.97120191618252,
        "lon": 60.12755676942289,
        "alt_km": 1012.4750701357243,
        "timestamp": "2025-12-08T10:52:03.219351+00:00",
        "meta_object_name": "FENGYUN 1C DEB",
        "meta_object_id": "1999-025EX",
        "meta_epoch": "2025-12-07T06:54:01.090368",
        "meta_mean_motion": 13.93762563,
        "meta_eccentricity": 0.01611658,
        "meta_inclination": 98.4582,
        "meta_ra_of_asc_node": 103.3523,
        "meta_arg_of_pericenter": 237.6664,
        "meta_mean_anomaly": 120.8808,
        "meta_ephemeris_type": 0,
        "meta_classification_type": "U",
        "meta_norad_cat_id": 29853,
        "meta_element_set_no": 999,
        "meta_rev_at_epoch": 95593,
        "meta_bstar": 0.0025196025,
        "meta_mean_motion_dot": 3.655e-05,
        "meta_mean_motion_ddot": 0,
        "tle_line1": "1 29853U 99025EX  25341.28751262  .00003655  00000+0  25196-2 0  9993",
        "tle_line2": "2 29853  98.4582 103.3523 0161165 237.6664 120.8808 13.93762563955939"
      },
      "geometry": {
        "type": "Point",
        "coordinates": [
          60.12755676942289,
          77.97120191618252
        ]
      }
    },
    {
      "type": "Feature",
      "properties": {
        "norad_id": 29854,
        "name": "FENGYUN 1C DEB",
        "group": "fengyun-1c-debris",
        "lat": 43.18510303801129,
        "lon": -27.712328045833747,
        "alt_km": 916.660258292538,
        "timestamp": "2025-12-08T10:52:03.219361+00:00",
        "meta_object_name": "FENGYUN 1C DEB",
        "meta_object_id": "1999-025EY",
        "meta_epoch": "2025-12-07T22:49:07.826592",
        "meta_mean_motion": 13.83336808,
        "meta_eccentricity": 0.01474455,
        "meta_inclination": 98.9272,
        "meta_ra_of_asc_node": 143.3277,
        "meta_arg_of_pericenter": 63.6937,
        "meta_mean_anomaly": 91.9989,
        "meta_ephemeris_type": 0,
        "meta_classification_type": "U",
        "meta_norad_cat_id": 29854,
        "meta_element_set_no": 999,
        "meta_rev_at_epoch": 95277,
        "meta_bstar": 0.0003619083,
        "meta_mean_motion_dot": 3.92e-06,
        "meta_mean_motion_ddot": 0,
        "tle_line1": "1 29854U 99025EY  25341.95078503  .00000392  00000+0  36191-3 0  9991",
        "tle_line2": "2 29854  98.9272 143.3277 0147445  63.6937  91.9989 13.83336808952771"
      },
      "geometry": {
        "type": "Point",
        "coordinates": [
          -27.712328045833747,
          43.18510303801129
        ]
      }
    },
    {
      "type": "Feature",
      "properties": {
        "norad_id": 29855,
        "name": "FENGYUN 1C DEB",
        "group": "fengyun-1c-debris",
        "lat": 16.68559457749635,
        "lon": -77.87861206582276,
        "alt_km": 787.3734686207699,
        "timestamp": "2025-12-08T10:52:03.219371+00:00",
        "meta_object_name": "FENGYUN 1C DEB",
        "meta_object_id": "1999-025EZ",
        "meta_epoch": "2025-12-07T19:39:20.342880",
        "meta_mean_motion": 14.01526601,
        "meta_eccentricity": 0.01840403,
        "meta_inclination": 98.1814,
        "meta_ra_of_asc_node": 284.0239,
        "meta_arg_of_pericenter": 60.0168,
        "meta_mean_anomaly": 2.1363,
        "meta_ephemeris_type": 0,
        "meta_classification_type": "U",
        "meta_norad_cat_id": 29855,
        "meta_element_set_no": 999,
        "meta_rev_at_epoch": 95643,
        "meta_bstar": 0.0035592367,
        "meta_mean_motion_dot": 6.207e-05,
        "meta_mean_motion_ddot": 0,
        "tle_line1": "1 29855U 99025EZ  25341.81898545  .00006207  00000+0  35592-2 0  9997",
        "tle_line2": "2 29855  98.1814 284.0239 0184040  60.0168   2.1363 14.01526601956436"
      },
      "geometry": {
        "type": "Point",
        "coordinates": [
          -77.87861206582276,
          16.68559457749635
        ]
      }
    },
    {
      "type": "Feature",
      "properties": {
        "norad_id": 29856,
        "name": "FENGYUN 1C DEB",
        "group": "fengyun-1c-debris",
        "lat": -69.62825899150884,
        "lon": 100.61043213407815,
        "alt_km": 567.2161907715617,
        "timestamp": "2025-12-08T10:52:03.219381+00:00",
        "meta_object_name": "FENGYUN 1C DEB",
        "meta_object_id": "1999-025FA",
        "meta_epoch": "2025-12-07T17:39:25.850304",
        "meta_mean_motion": 14.47556902,
        "meta_eccentricity": 0.02628488,
        "meta_inclination": 98.6894,
        "meta_ra_of_asc_node": 75.5524,
        "meta_arg_of_pericenter": 313.0384,
        "meta_mean_anomaly": 201.7983,
        "meta_ephemeris_type": 0,
        "meta_classification_type": "U",
        "meta_norad_cat_id": 29856,
        "meta_element_set_no": 999,
        "meta_rev_at_epoch": 96302,
        "meta_bstar": 0.0035993091,
        "meta_mean_motion_dot": 0.00020482,
        "meta_mean_motion_ddot": 0,
        "tle_line1": "1 29856U 99025FA  25341.73571586  .00020482  00000+0  35993-2 0  9998",
        "tle_line2": "2 29856  98.6894  75.5524 0262848 313.0384 201.7983 14.47556902963029"
      },
      "geometry": {
        "type": "Point",
        "coordinates": [
          100.61043213407815,
          -69.62825899150884
        ]
      }
    }
  ]
}